GEOSCAN-3 (RS92S3)
1 64893U 25155T   26202.59102321  .00018496  00000-0  52108-3 0  9990
2 64893  97.4558 172.9010 0008271  70.9672 289.2467 15.36460706 86133
INNOSAT3 (RS92S0)
1 64894U 25155U   26202.63784141  .00041232  00000-0  83810-3 0  9990
2 64894  97.4502 175.0247 0007837  76.1553 284.0568 15.46168328 86289
KNACKSAT-2
1 67683U 98067XZ  26202.01445164  .00044153  00000-0  48284-3 0  9993
2 67683  51.6271 123.9445 0007841 347.8251  12.2553 15.62823140 25560
