OBJECT_NAME,OBJECT_ID,EPOCH,MEAN_MOTION,ECCENTRICITY,INCLINATION,RA_OF_ASC_NODE,ARG_OF_PERICENTER,MEAN_ANOMALY,EPHEMERIS_TYPE,CLASSIFICATION_TYPE,NORAD_CAT_ID,ELEMENT_SET_NO,REV_AT_EPOCH,BSTAR,MEAN_MOTION_DOT,MEAN_MOTION_DDOT
GEOSCAN 3 (RS92S3),2025-155T,2026-07-21T14:11:04.405344,15.36460706,.00082713,97.4558,172.9010,70.9672,289.2467,0,U,64893,999,8613,.52107822E-3,.18496E-3,0
INNOSAT 3 (RS92S0),2025-155U,2026-07-21T15:18:29.497824,15.46168328,.0007837,97.4502,175.0247,76.1553,284.0568,0,U,64894,999,8628,.83809935E-3,.41232E-3,0
KNACKSAT-2,1998-067XZ,2026-07-21T00:20:48.621696,15.62823140,.00078407,51.6271,123.9445,347.8251,12.2553,0,U,67683,999,2556,.48283553E-3,.44153E-3,0
